0 DELTA 1 DEB
1 14565U 77065FR  13282.12846757  .00000863  00000-0  14796-2 0  1215
2 14565 029.2099 239.5388 0874971 306.1361 152.8490 12.42234049464967
0 DELTA 1 DEB
1 14565U 77065FR  13283.00206257  .00000667  00000-0  11219-2 0  1228
2 14565 029.2089 235.8418 0874961 312.1171 099.5687 12.42231495465074
0 DELTA 1 DEB
1 14565U 77065FR  13287.20181045  .00000897  00000-0  15549-2 0  1248
2 14565 029.2070 218.0725 0875246 340.8059 160.8794 12.42229596465595
0 DELTA 1 DEB
1 14565U 77065FR  13289.12801885  .00001094  00000-0  19206-2 0  1257
2 14565 029.2064 209.9226 0875446 353.9645 134.9103 12.42232914465832
0 DELTA 1 DEB
1 14565U 77065FR  13291.05402398  .00001225  00000-0  21649-2 0  1269
2 14565 029.2060 201.7732 0875687 007.1157 108.0551 12.42235730466078
0 DELTA 1 DEB
1 14565U 77065FR  13292.89131346  .00001394  00000-0  24757-2 0  1275
2 14565 029.2059 194.0002 0875975 019.6546 044.5086 12.42242659466301
0 DELTA 1 DEB
1 14565U 77065FR  13294.02705669  .00001409  00000-0  25024-2 0  1283
2 14565 029.2058 189.1952 0876149 027.3974 083.6323 12.42246393466446
0 DELTA 1 DEB
1 14565U 77065FR  13295.07607402  .00001454  00000-0  25854-2 0  1297
2 14565 029.2058 184.7566 0876315 034.5554 094.9181 12.42249430466573
